{
  "type": "FeatureCollection",
  "features": [
    {
      "type": "Feature",
      "properties": {
        "norad_id": 31236,
        "name": "FENGYUN 1C DEB",
        "group": "fengyun-1c-debris",
        "lat": 16.500285370098723,
        "lon": 124.06042692659183,
        "alt_km": 1035.6122642469181,
        "timestamp": "2025-12-12T05:47:29.052290+00:00",
        "meta_object_name": "FENGYUN 1C DEB",
        "meta_object_id": "1999-025BLS",
        "meta_epoch": "2025-12-11T15:10:22.905120",
        "meta_mean_motion": 13.85806363,
        "meta_eccentricity": 0.03145752,
        "meta_inclination": 98.5462,
        "meta_ra_of_asc_node": 300.9507,
        "meta_arg_of_pericenter": 49.7406,
        "meta_mean_anomaly": 313.0812,
        "meta_ephemeris_type": 0,
        "meta_classification_type": "U",
        "meta_norad_cat_id": 31236,
        "meta_element_set_no": 999,
        "meta_rev_at_epoch": 61009,
        "meta_bstar": 0.0078207637,
        "meta_mean_motion_dot": 0.00013198,
        "meta_mean_motion_ddot": 0,
        "tle_line1": "1 31236U 99025BLS 25345.63220955  .00013198  00000+0  78208-2 0  9999",
        "tle_line2": "2 31236  98.5462 300.9507 0314575  49.7406 313.0812 13.85806363610097"
      },
      "geometry": {
        "type": "Point",
        "coordinates": [
          124.06042692659183,
          16.500285370098723
        ]
      }
    },
    {
      "type": "Feature",
      "properties": {
        "norad_id": 31237,
        "name": "FENGYUN 1C DEB",
        "group": "fengyun-1c-debris",
        "lat": 6.92177262588714,
        "lon": -15.917255835940392,
        "alt_km": 727.8994835657713,
        "timestamp": "2025-12-12T05:47:29.052300+00:00",
        "meta_object_name": "FENGYUN 1C DEB",
        "meta_object_id": "1999-025BLT",
        "meta_epoch": "2025-12-11T23:02:55.651776",
        "meta_mean_motion": 14.31385007,
        "meta_eccentricity": 0.00890585,
        "meta_inclination": 98.454,
        "meta_ra_of_asc_node": 344.8438,
        "meta_arg_of_pericenter": 351.2898,
        "meta_mean_anomaly": 8.6735,
        "meta_ephemeris_type": 0,
        "meta_classification_type": "U",
        "meta_norad_cat_id": 31237,
        "meta_element_set_no": 999,
        "meta_rev_at_epoch": 97255,
        "meta_bstar": 0.00096525393,
        "meta_mean_motion_dot": 2.63e-05,
        "meta_mean_motion_ddot": 0,
        "tle_line1": "1 31237U 99025BLT 25345.96036634  .00002630  00000+0  96525-3 0  9997",
        "tle_line2": "2 31237  98.4540 344.8438 0089058 351.2898   8.6735 14.31385007972557"
      },
      "geometry": {
        "type": "Point",
        "coordinates": [
          -15.917255835940392,
          6.92177262588714
        ]
      }
    },
    {
      "type": "Feature",
      "properties": {
        "norad_id": 31239,
        "name": "FENGYUN 1C DEB",
        "group": "fengyun-1c-debris",
        "lat": -58.04129204825025,
        "lon": 146.8898270371092,
        "alt_km": 839.3726257806966,
        "timestamp": "2025-12-12T05:47:29.052311+00:00",
        "meta_object_name": "FENGYUN 1C DEB",
        "meta_object_id": "1999-025BLV",
        "meta_epoch": "2025-12-11T23:51:24.109056",
        "meta_mean_motion": 14.09860145,
        "meta_eccentricity": 0.00492531,
        "meta_inclination": 98.7583,
        "meta_ra_of_asc_node": 340.9554,
        "meta_arg_of_pericenter": 200.1613,
        "meta_mean_anomaly": 224.191,
        "meta_ephemeris_type": 0,
        "meta_classification_type": "U",
        "meta_norad_cat_id": 31239,
        "meta_element_set_no": 999,
        "meta_rev_at_epoch": 96001,
        "meta_bstar": 0.00057285076,
        "meta_mean_motion_dot": 9.76e-06,
        "meta_mean_motion_ddot": 0,
        "tle_line1": "1 31239U 99025BLV 25345.99402904  .00000976  00000+0  57285-3 0  9990",
        "tle_line2": "2 31239  98.7583 340.9554 0049253 200.1613 224.1910 14.09860145960019"
      },
      "geometry": {
        "type": "Point",
        "coordinates": [
          146.8898270371092,
          -58.04129204825025
        ]
      }
    },
    {
      "type": "Feature",
      "properties": {
        "norad_id": 31241,
        "name": "FENGYUN 1C DEB",
        "group": "fengyun-1c-debris",
        "lat": -19.849946124687865,
        "lon": -50.343893401599445,
        "alt_km": 722.4082003629974,
        "timestamp": "2025-12-12T05:47:29.052323+00:00",
        "meta_object_name": "FENGYUN 1C DEB",
        "meta_object_id": "1999-025BLX",
        "meta_epoch": "2025-12-11T08:50:09.305664",
        "meta_mean_motion": 14.38689727,
        "meta_eccentricity": 0.00667838,
        "meta_inclination": 99.2338,
        "meta_ra_of_asc_node": 132.0841,
        "meta_arg_of_pericenter": 185.0225,
        "meta_mean_anomaly": 175.0298,
        "meta_ephemeris_type": 0,
        "meta_classification_type": "U",
        "meta_norad_cat_id": 31241,
        "meta_element_set_no": 999,
        "meta_rev_at_epoch": 97671,
        "meta_bstar": 0.0012232111,
        "meta_mean_motion_dot": 3.801e-05,
        "meta_mean_motion_ddot": 0,
        "tle_line1": "1 31241U 99025BLX 25345.36816326  .00003801  00000+0  12232-2 0  9993",
        "tle_line2": "2 31241  99.2338 132.0841 0066783 185.0225 175.0298 14.38689727976716"
      },
      "geometry": {
        "type": "Point",
        "coordinates": [
          -50.343893401599445,
          -19.849946124687865
        ]
      }
    },
    {
      "type": "Feature",
      "properties": {
        "norad_id": 31243,
        "name": "FENGYUN 1C DEB",
        "group": "fengyun-1c-debris",
        "lat": -0.4970637989659133,
        "lon": -153.55702942506164,
        "alt_km": 824.9525694235499,
        "timestamp": "2025-12-12T05:47:29.052333+00:00",
        "meta_object_name": "FENGYUN 1C DEB",
        "meta_object_id": "1999-025BLZ",
        "meta_epoch": "2025-12-11T01:38:01.863168",
        "meta_mean_motion": 14.07160791,
        "meta_eccentricity": 0.00661137,
        "meta_inclination": 98.7502,
        "meta_ra_of_asc_node": 25.3839,
        "meta_arg_of_pericenter": 172.9783,
        "meta_mean_anomaly": 187.2328,
        "meta_ephemeris_type": 0,
        "meta_classification_type": "U",
        "meta_norad_cat_id": 31243,
        "meta_element_set_no": 999,
        "meta_rev_at_epoch": 69284,
        "meta_bstar": 0.0010133892,
        "meta_mean_motion_dot": 1.689e-05,
        "meta_mean_motion_ddot": 0,
        "tle_line1": "1 31243U 99025BLZ 25345.06807712  .00001689  00000+0  10134-2 0  9992",
        "tle_line2": "2 31243  98.7502  25.3839 0066113 172.9783 187.2328 14.07160791692846"
      },
      "geometry": {
        "type": "Point",
        "coordinates": [
          -153.55702942506164,
          -0.4970637989659133
        ]
      }
    },
    {
      "type": "Feature",
      "properties": {
        "norad_id": 31244,
        "name": "FENGYUN 1C DEB",
        "group": "fengyun-1c-debris",
        "lat": -25.656667618215014,
        "lon": -134.52199099884172,
        "alt_km": 813.0949198064673,
        "timestamp": "2025-12-12T05:47:29.052343+00:00",
        "meta_object_name": "FENGYUN 1C DEB",
        "meta_object_id": "1999-025BMA",
        "meta_epoch": "2025-12-07T22:21:36.542016",
        "meta_mean_motion": 14.06237413,
        "meta_eccentricity": 0.01023168,
        "meta_inclination": 99.037,
        "meta_ra_of_asc_node": 45.5611,
        "meta_arg_of_pericenter": 188.335,
        "meta_mean_anomaly": 171.6122,
        "meta_ephemeris_type": 0,
        "meta_classification_type": "U",
        "meta_norad_cat_id": 31244,
        "meta_element_set_no": 999,
        "meta_rev_at_epoch": 57572,
        "meta_bstar": 0.00047777338,
        "meta_mean_motion_dot": 7.8e-06,
        "meta_mean_motion_ddot": 0,
        "tle_line1": "1 31244U 99025BMA 25341.93167294  .00000780  00000+0  47777-3 0  9994",
        "tle_line2": "2 31244  99.0370  45.5611 0102316 188.3350 171.6122 14.06237413575724"
      },
      "geometry": {
        "type": "Point",
        "coordinates": [
          -134.52199099884172,
          -25.656667618215014
        ]
      }
    },
    {
      "type": "Feature",
      "properties": {
        "norad_id": 31247,
        "name": "FENGYUN 1C DEB",
        "group": "fengyun-1c-debris",
        "lat": 39.70890562049065,
        "lon": 62.28280978856722,
        "alt_km": 862.1637593976366,
        "timestamp": "2025-12-12T05:47:29.052356+00:00",
        "meta_object_name": "FENGYUN 1C DEB",
        "meta_object_id": "1999-025BMD",
        "meta_epoch": "2025-12-11T15:36:13.521600",
        "meta_mean_motion": 14.05112994,
        "meta_eccentricity": 0.00589438,
        "meta_inclination": 99.3655,
        "meta_ra_of_asc_node": 233.7952,
        "meta_arg_of_pericenter": 65.5259,
        "meta_mean_anomaly": 324.7199,
        "meta_ephemeris_type": 0,
        "meta_classification_type": "U",
        "meta_norad_cat_id": 31247,
        "meta_element_set_no": 999,
        "meta_rev_at_epoch": 95506,
        "meta_bstar": 0.0014564141,
        "meta_mean_motion_dot": 2.34e-05,
        "meta_mean_motion_ddot": 0,
        "tle_line1": "1 31247U 99025BMD 25345.65015650  .00002340  00000+0  14564-2 0  9999",
        "tle_line2": "2 31247  99.3655 233.7952 0058943  65.5259 324.7199 14.05112994955064"
      },
      "geometry": {
        "type": "Point",
        "coordinates": [
          62.28280978856722,
          39.70890562049065
        ]
      }
    }
  ]
}